sat12670
1 12670U 81053AA  20046.75943671  .00000027  00000-0  10899-4 0  9997
2 12670  82.9451 132.0326 0059324  92.1090  22.0066 13.78891376934755
